start=new Date('2022-03-10T00:00:00.000Z').valueOf();
sats=[{"RCS_SIZE":"LARGE","OBJECT_ID":"2020-062X","CENTER_NAME":"EARTH","GP_ID":"198359042","MEAN_ELEMENT_THEORY":"SGP4","ELEMENT_SET_NO":"999","FILE":"3352875","TLE_LINE1":"1 46346U 20062X   22068.94009504  .00003745  00000-0  12257-3 0  9991","ECCENTRICITY":"0.00028670","RA_OF_ASC_NODE":"317.2055","MEAN_MOTION_DOT":"0.00003745","SITE":"AFETR","TLE_LINE2":"2 46346  53.0552 317.2055 0002867  33.2099 326.9081 15.34233863 86075","MEAN_MOTION":"15.34233863","SEMIMAJOR_AXIS":"6841.334","MEAN_ANOMALY":"326.9081","EPHEMERIS_TYPE":"0","INCLINATION":"53.0552","APOAPSIS":"465.160","OBJECT_TYPE":"PAYLOAD","LAUNCH_DATE":"2020-09-03","DECAY_DATE":null,"OBJECT_NAME":"STARLINK-1546","PERIOD":"93.858","EPOCH":"2022-03-09T22:33:44.211456","COUNTRY_CODE":"US","REF_FRAME":"TEME","TIME_SYSTEM":"UTC","MEAN_MOTION_DDOT":"0.0000000000000","REV_AT_EPOCH":"8607","BSTAR":"0.00012257000000","PERIAPSIS":"461.238","CLASSIFICATION_TYPE":"U","ARG_OF_PERICENTER":"33.2099","NORAD_CAT_ID":"46346"},{"SITE":"AFETR","MEAN_MOTION_DOT":"0.00001062","MEAN_MOTION":"15.06398106","TLE_LINE2":"2 46347  53.0557  50.4187 0001884  49.4128 310.7024 15.06398106 84711","GP_ID":"198359292","CENTER_NAME":"EARTH","MEAN_ELEMENT_THEORY":"SGP4","OBJECT_ID":"2020-062Y","RCS_SIZE":"LARGE","RA_OF_ASC_NODE":"50.4187","ECCENTRICITY":"0.00018840","TLE_LINE1":"1 46347U 20062Y   22068.66080221  .00001062  00000-0  90164-4 0  9990","FILE":"3352875","ELEMENT_SET_NO":"999","PERIAPSIS":"545.915","BSTAR":"0.00009016400000","REV_AT_EPOCH":"8471","MEAN_MOTION_DDOT":"0.0000000000000","TIME_SYSTEM":"UTC","EPOCH":"2022-03-09T15:51:33.310944","COUNTRY_CODE":"US","REF_FRAME":"TEME","NORAD_CAT_ID":"46347","ARG_OF_PERICENTER":"49.4128","CLASSIFICATION_TYPE":"U","INCLINATION":"53.0557","EPHEMERIS_TYPE":"0","MEAN_ANOMALY":"310.7024","SEMIMAJOR_AXIS":"6925.354","PERIOD":"95.592","DECAY_DATE":null,"OBJECT_NAME":"STARLINK-1547","LAUNCH_DATE":"2020-09-03","OBJECT_TYPE":"PAYLOAD","APOAPSIS":"548.524"},{"INCLINATION":"53.0538","EPHEMERIS_TYPE":"0","MEAN_ANOMALY":"308.8633","SEMIMAJOR_AXIS":"6925.391","DECAY_DATE":null,"PERIOD":"95.593","OBJECT_NAME":"STARLINK-1553","LAUNCH_DATE":"2020-09-03","APOAPSIS":"548.574","OBJECT_TYPE":"PAYLOAD","PERIAPSIS":"545.937","BSTAR":"0.00021062000000","REV_AT_EPOCH":"8438","MEAN_MOTION_DDOT":"0.0000000000000","TIME_SYSTEM":"UTC","REF_FRAME":"TEME","COUNTRY_CODE":"US","EPOCH":"2022-03-09T16:54:36.552672","NORAD_CAT_ID":"46348","ARG_OF_PERICENTER":"51.2526","CLASSIFICATION_TYPE":"U","GP_ID":"198360544","CENTER_NAME":"EARTH","MEAN_ELEMENT_THEORY":"SGP4","OBJECT_ID":"2020-062Z","RCS_SIZE":"LARGE","RA_OF_ASC_NODE":"75.2226","TLE_LINE1":"1 46348U 20062Z   22068.70458973  .00002856  00000-0  21062-3 0  9991","ECCENTRICITY":"0.00019040","FILE":"3352875","ELEMENT_SET_NO":"999","SITE":"AFETR","MEAN_MOTION_DOT":"0.00002856","MEAN_MOTION":"15.06386220","TLE_LINE2":"2 46348  53.0538  75.2226 0001904  51.2526 308.8633 15.06386220 84387"},{"ELEMENT_SET_NO":"999","RA_OF_ASC_NODE":"49.9553","ECCENTRICITY":"0.00018350","TLE_LINE1":"1 46349U 20062AA  22068.76769166 -.00000283  00000-0 -10244-6 0  9994","FILE":"3352875","RCS_SIZE":"LARGE","GP_ID":"198360795","MEAN_ELEMENT_THEORY":"SGP4","CENTER_NAME":"EARTH","OBJECT_ID":"2020-062AA","TLE_LINE2":"2 46349  53.0568  49.9553 0001835  50.2232 309.8918 15.06397104 84748","MEAN_MOTION":"15.06397104","MEAN_MOTION_DOT":"-0.00000283","SITE":"AFETR","LAUNCH_DATE":"2020-09-03","OBJECT_TYPE":"PAYLOAD","APOAPSIS":"548.493","DECAY_DATE":null,"PERIOD":"95.592","OBJECT_NAME":"STARLINK-1575","SEMIMAJOR_AXIS":"6925.357","EPHEMERIS_TYPE":"0","INCLINATION":"53.0568","MEAN_ANOMALY":"309.8918","CLASSIFICATION_TYPE":"U","NORAD_CAT_ID":"46349","ARG_OF_PERICENTER":"50.2232","MEAN_MOTION_DDOT":"0.0000000000000","TIME_SYSTEM":"UTC","REF_FRAME":"TEME","COUNTRY_CODE":"US","EPOCH":"2022-03-09T18:25:28.559424","PERIAPSIS":"545.952","BSTAR":"-0.00000010244000","REV_AT_EPOCH":"8474"},{"BSTAR":"0.00024431000000","REV_AT_EPOCH":"8407","PERIAPSIS":"545.941","COUNTRY_CODE":"US","EPOCH":"2022-03-09T11:12:14.730624","REF_FRAME":"TEME","MEAN_MOTION_DDOT":"0.0000000000000","TIME_SYSTEM":"UTC","ARG_OF_PERICENTER":"51.9479","NORAD_CAT_ID":"46350","CLASSIFICATION_TYPE":"U","EPHEMERIS_TYPE":"0","INCLINATION":"53.0554","MEAN_ANOMALY":"308.1677","SEMIMAJOR_AXIS":"6925.365","PERIOD":"95.592","DECAY_DATE":null,"OBJECT_NAME":"STARLINK-1617","OBJECT_TYPE":"PAYLOAD","APOAPSIS":"548.519","LAUNCH_DATE":"2020-09-03","SITE":"AFETR","MEAN_MOTION_DOT":"0.00003359","MEAN_MOTION":"15.06394658","TLE_LINE2":"2 46350  53.0554  96.3082 0001861  51.9479 308.1677 15.06394658 84079","MEAN_ELEMENT_THEORY":"SGP4","GP_ID":"198323971","CENTER_NAME":"EARTH","OBJECT_ID":"2020-062AB","RCS_SIZE":"LARGE","FILE":"3352425","RA_OF_ASC_NODE":"96.3082","ECCENTRICITY":"0.00018610","TLE_LINE1":"1 46350U 20062AB  22068.46683716  .00003359  00000-0  24431-3 0  9994","ELEMENT_SET_NO":"999"},{"ARG_OF_PERICENTER":"51.5475","NORAD_CAT_ID":"46351","CLASSIFICATION_TYPE":"U","REV_AT_EPOCH":"8439","BSTAR":"0.00011893000000","PERIAPSIS":"546.091","COUNTRY_CODE":"US","REF_FRAME":"TEME","EPOCH":"2022-03-09T17:42:22.881312","TIME_SYSTEM":"UTC","MEAN_MOTION_DDOT":"0.0000000000000","OBJECT_NAME":"STARLINK-1646","DECAY_DATE":null,"PERIOD":"95.593","OBJECT_TYPE":"PAYLOAD","APOAPSIS":"548.434","LAUNCH_DATE":"2020-09-03","MEAN_ANOMALY":"308.5666","INCLINATION":"53.0541","EPHEMERIS_TYPE":"0","SEMIMAJOR_AXIS":"6925.398","MEAN_MOTION":"15.06384028","TLE_LINE2":"2 46351  53.0541  75.0759 0001692  51.5475 308.5666 15.06384028 84392","SITE":"AFETR","MEAN_MOTION_DOT":"0.00001490","FILE":"3352875","TLE_LINE1":"1 46351U 20062AC  22068.73776483  .00001490  00000-0  11893-3 0  9991","ECCENTRICITY":"0.00016920","RA_OF_ASC_NODE":"75.0759","ELEMENT_SET_NO":"999","OBJECT_ID":"2020-062AC","GP_ID":"198359793","CENTER_NAME":"EARTH","MEAN_ELEMENT_THEORY":"SGP4","RCS_SIZE":"LARGE"},{"TLE_LINE2":"2 46352  53.0548  75.1607 0001551  56.6804 303.4333 15.06407949 84392","MEAN_MOTION":"15.06407949","MEAN_MOTION_DOT":"0.00002077","SITE":"AFETR","ELEMENT_SET_NO":"999","FILE":"3352875","RA_OF_ASC_NODE":"75.1607","TLE_LINE1":"1 46352U 20062AD  22068.71933081  .00002077  00000-0  15828-3 0  9993","ECCENTRICITY":"0.00015510","RCS_SIZE":"LARGE","GP_ID":"198360044","CENTER_NAME":"EARTH","MEAN_ELEMENT_THEORY":"SGP4","OBJECT_ID":"2020-062AD","CLASSIFICATION_TYPE":"U","ARG_OF_PERICENTER":"56.6804","NORAD_CAT_ID":"46352","EPOCH":"2022-03-09T17:15:50.181984","COUNTRY_CODE":"US","REF_FRAME":"TEME","MEAN_MOTION_DDOT":"0.0000000000000","TIME_SYSTEM":"UTC","BSTAR":"0.00015828000000","REV_AT_EPOCH":"8439","PERIAPSIS":"546.115","OBJECT_TYPE":"PAYLOAD","APOAPSIS":"548.263","LAUNCH_DATE":"2020-09-03","OBJECT_NAME":"STARLINK-1653","DECAY_DATE":null,"PERIOD":"95.592","SEMIMAJOR_AXIS":"6925.324","INCLINATION":"53.0548","EPHEMERIS_TYPE":"0","MEAN_ANOMALY":"303.4333"},{"REV_AT_EPOCH":"8411","BSTAR":"-0.00010211000000","PERIAPSIS":"546.018","COUNTRY_CODE":"US","REF_FRAME":"TEME","EPOCH":"2022-03-09T18:48:42.734880","TIME_SYSTEM":"UTC","MEAN_MOTION_DDOT":"0.0000000000000","ARG_OF_PERICENTER":"58.6422","NORAD_CAT_ID":"46353","CLASSIFICATION_TYPE":"U","MEAN_ANOMALY":"301.4739","EPHEMERIS_TYPE":"0","INCLINATION":"53.0549","SEMIMAJOR_AXIS":"6925.378","DECAY_DATE":null,"PERIOD":"95.593","OBJECT_NAME":"STARLINK-1656","APOAPSIS":"548.468","OBJECT_TYPE":"PAYLOAD","LAUNCH_DATE":"2020-09-03","SITE":"AFETR","MEAN_MOTION_DOT":"-0.00001802","MEAN_MOTION":"15.06390409","TLE_LINE2":"2 46353  53.0549  94.8856 0001769  58.6422 301.4739 15.06390409 84117","OBJECT_ID":"2020-062AE","GP_ID":"198360295","MEAN_ELEMENT_THEORY":"SGP4","CENTER_NAME":"EARTH","RCS_SIZE":"LARGE","FILE":"3352875","TLE_LINE1":"1 46353U 20062AE  22068.78382795 -.00001802  00000-0 -10211-3 0  9999","ECCENTRICITY":"0.00017690","RA_OF_ASC_NODE":"94.8856","ELEMENT_SET_NO":"999"},{"SITE":"AFETR","MEAN_MOTION_DOT":"0.00002119","MEAN_MOTION":"15.06395343","TLE_LINE2":"2 46354  53.0541  94.9181 0001744  56.0278 304.0876 15.06395343 84119","GP_ID":"198359043","CENTER_NAME":"EARTH","MEAN_ELEMENT_THEORY":"SGP4","OBJECT_ID":"2020-062AF","RCS_SIZE":"LARGE","FILE":"3352875","RA_OF_ASC_NODE":"94.9181","ECCENTRICITY":"0.00017440","TLE_LINE1":"1 46354U 20062AF  22068.77276520  .00002119  00000-0  16112-3 0  9993","ELEMENT_SET_NO":"999","BSTAR":"0.00016112000000","REV_AT_EPOCH":"8411","PERIAPSIS":"546.020","COUNTRY_CODE":"US","EPOCH":"2022-03-09T18:32:46.913280","REF_FRAME":"TEME","MEAN_MOTION_DDOT":"0.0000000000000","TIME_SYSTEM":"UTC","ARG_OF_PERICENTER":"56.0278","NORAD_CAT_ID":"46354","CLASSIFICATION_TYPE":"U","EPHEMERIS_TYPE":"0","INCLINATION":"53.0541","MEAN_ANOMALY":"304.0876","SEMIMAJOR_AXIS":"6925.363","DECAY_DATE":null,"OBJECT_NAME":"STARLINK-1657","PERIOD":"95.592","APOAPSIS":"548.436","OBJECT_TYPE":"PAYLOAD","LAUNCH_DATE":"2020-09-03"},{"MEAN_MOTION":"15.06382957","TLE_LINE2":"2 46355  53.0545  96.2366 0001623  60.4783 299.6368 15.06382957 84257","SITE":"AFETR","MEAN_MOTION_DOT":"-0.00000401","FILE":"3352538","RA_OF_ASC_NODE":"96.2366","ECCENTRICITY":"0.00016230","TLE_LINE1":"1 46355U 20062AG  22068.48159353 -.00000401  00000-0 -80135-5 0  9998","ELEMENT_SET_NO":"999","CENTER_NAME":"EARTH","GP_ID":"198330372","MEAN_ELEMENT_THEORY":"SGP4","OBJECT_ID":"2020-062AG","RCS_SIZE":"LARGE","ARG_OF_PERICENTER":"60.4783","NORAD_CAT_ID":"46355","CLASSIFICATION_TYPE":"U","BSTAR":"-0.00000801350000","REV_AT_EPOCH":"8425","PERIAPSIS":"546.142","REF_FRAME":"TEME","COUNTRY_CODE":"US","EPOCH":"2022-03-09T11:33:29.680992","MEAN_MOTION_DDOT":"0.0000000000000","TIME_SYSTEM":"UTC","DECAY_DATE":null,"PERIOD":"95.593","OBJECT_NAME":"STARLINK-1661","APOAPSIS":"548.390","OBJECT_TYPE":"PAYLOAD","LAUNCH_DATE":"2020-09-03","EPHEMERIS_TYPE":"0","INCLINATION":"53.0545","MEAN_ANOMALY":"299.6368","SEMIMAJOR_AXIS":"6925.401"}];
